{
  "norad_id": 47126,
  "name": "STARLINK-1812",
  "history": [
    {
      "epoch": "2026-03-28T18:20:18.411936Z",
      "apogee_km": 517.3390834557676,
      "perigee_km": 516.628196517785,
      "latitude_deg": -1.849540887300776e-05,
      "longitude_deg": 111.57460061816265,
      "height_km": 517.8153027493415,
      "semi_major_axis_km": 6895.120639986776,
      "eccentricity": 5.155e-05,
      "inclination_deg": 53.0798,
      "raan_deg": 212.8312,
      "arg_perigee_deg": 278.8427,
      "mean_anomaly_deg": 81.2508,
      "mean_motion_rev_day": 15.1631684
    },
    {
      "epoch": "2026-03-30T00:23:36.313728Z",
      "apogee_km": 517.1208705491772,
      "perigee_km": 516.1812488324031,
      "latitude_deg": -2.6433619712525517e-05,
      "longitude_deg": 13.810390451885368,
      "height_km": 517.3097572849679,
      "semi_major_axis_km": 6894.78805969079,
      "eccentricity": 6.814e-05,
      "inclination_deg": 53.0805,
      "raan_deg": 207.1259,
      "arg_perigee_deg": 299.0076,
      "mean_anomaly_deg": 61.0849,
      "mean_motion_rev_day": 15.16426554
    },
    {
      "epoch": "2026-03-30T14:37:45.055200Z",
      "apogee_km": 517.0653785015384,
      "perigee_km": 515.8756450293067,
      "latitude_deg": -4.01716627043205e-07,
      "longitude_deg": 156.9863458376982,
      "height_km": 517.0126744179358,
      "semi_major_axis_km": 6894.607511765422,
      "eccentricity": 8.628e-05,
      "inclination_deg": 53.0802,
      "raan_deg": 204.4229,
      "arg_perigee_deg": 305.3849,
      "mean_anomaly_deg": 54.7064,
      "mean_motion_rev_day": 15.1648612
    },
    {
      "epoch": "2026-03-30T17:47:33.415008Z",
      "apogee_km": 517.0386127565362,
      "perigee_km": 515.8239277186858,
      "latitude_deg": -1.375286235147242e-05,
      "longitude_deg": 108.80421922528024,
      "height_km": 516.9431649188065,
      "semi_major_axis_km": 6894.568270237611,
      "eccentricity": 8.809e-05,
      "inclination_deg": 53.0802,
      "raan_deg": 203.8222,
      "arg_perigee_deg": 308.0975,
      "mean_anomaly_deg": 51.9939,
      "mean_motion_rev_day": 15.16499067
    },
    {
      "epoch": "2026-03-31T14:21:15.257664Z",
      "apogee_km": 516.8182641132871,
      "perigee_km": 515.5373004267412,
      "latitude_deg": -5.348575999283435e-05,
      "longitude_deg": 155.63171042437327,
      "height_km": 516.6631292166933,
      "semi_major_axis_km": 6894.314782270014,
      "eccentricity": 9.29e-05,
      "inclination_deg": 53.0797,
      "raan_deg": 199.9185,
      "arg_perigee_deg": 308.7964,
      "mean_anomaly_deg": 51.2946,
      "mean_motion_rev_day": 15.16582705
    },
    {
      "epoch": "2026-04-01T14:04:40.007424Z",
      "apogee_km": 516.7175000012985,
      "perigee_km": 515.0546616342044,
      "latitude_deg": 2.1692333629310144e-05,
      "longitude_deg": 154.29785265579986,
      "height_km": 516.1461416761992,
      "semi_major_axis_km": 6894.023080817751,
      "eccentricity": 0.0001206,
      "inclination_deg": 53.0774,
      "raan_deg": 195.412,
      "arg_perigee_deg": 318.8914,
      "mean_anomaly_deg": 41.1989,
      "mean_motion_rev_day": 15.16678961
    },
    {
      "epoch": "2026-04-02T13:47:59.707968Z",
      "apogee_km": 516.5406082240379,
      "perigee_km": 514.694874329608,
      "latitude_deg": -3.229992251869315e-05,
      "longitude_deg": 152.98589398663842,
      "height_km": 515.7289826552886,
      "semi_major_axis_km": 6893.754741276823,
      "eccentricity": 0.00013387,
      "inclination_deg": 53.0782,
      "raan_deg": 190.9064,
      "arg_perigee_deg": 327.153,
      "mean_anomaly_deg": 32.938,
      "mean_motion_rev_day": 15.16767517
    },
    {
      "epoch": "2026-04-03T16:41:00.381984Z",
      "apogee_km": 516.2850222352517,
      "perigee_km": 514.3755317995165,
      "latitude_deg": 4.940919513965306e-05,
      "longitude_deg": 103.52347993386704,
      "height_km": 515.4192824173249,
      "semi_major_axis_km": 6893.467277017384,
      "eccentricity": 0.0001385,
      "inclination_deg": 53.0774,
      "raan_deg": 185.8008,
      "arg_perigee_deg": 326.6513,
      "mean_anomaly_deg": 33.4394,
      "mean_motion_rev_day": 15.16862394
    },
    {
      "epoch": "2026-04-04T14:49:16.275072Z",
      "apogee_km": 516.0218117848171,
      "perigee_km": 514.0172818610008,
      "latitude_deg": -1.8468925604557894e-05,
      "longitude_deg": 126.3426423907291,
      "height_km": 515.0005190182965,
      "semi_major_axis_km": 6893.156546822908,
      "eccentricity": 0.0001454,
      "inclination_deg": 53.0777,
      "raan_deg": 181.5954,
      "arg_perigee_deg": 334.6159,
      "mean_anomaly_deg": 25.4763,
      "mean_motion_rev_day": 15.16964961
    },
    {
      "epoch": "2026-04-05T14:32:19.222656Z",
      "apogee_km": 515.8335142199267,
      "perigee_km": 513.5823110714564,
      "latitude_deg": -2.298312328142399e-06,
      "longitude_deg": 125.09862891047813,
      "height_km": 514.533609240477,
      "semi_major_axis_km": 6892.844912645691,
      "eccentricity": 0.0001633,
      "inclination_deg": 53.0773,
      "raan_deg": 177.0877,
      "arg_perigee_deg": 340.4467,
      "mean_anomaly_deg": 19.6464,
      "mean_motion_rev_day": 15.17067838
    },
    {
      "epoch": "2026-04-05T14:32:19.223520Z",
      "apogee_km": 515.8337210052732,
      "perigee_km": 513.5821042861089,
      "latitude_deg": -1.3823934989685068e-06,
      "longitude_deg": 125.09862598510861,
      "height_km": 514.5334143852991,
      "semi_major_axis_km": 6892.844912645691,
      "eccentricity": 0.00016333,
      "inclination_deg": 53.0773,
      "raan_deg": 177.0877,
      "arg_perigee_deg": 340.4467,
      "mean_anomaly_deg": 19.6464,
      "mean_motion_rev_day": 15.17067838
    },
    {
      "epoch": "2026-04-06T04:46:06.404736Z",
      "apogee_km": 515.8039933394675,
      "perigee_km": 513.2951932732367,
      "latitude_deg": -5.6585358618776244e-05,
      "longitude_deg": -91.63680086148781,
      "height_km": 514.2500560738815,
      "semi_major_axis_km": 6892.686593306352,
      "eccentricity": 0.00018199,
      "inclination_deg": 53.0769,
      "raan_deg": 174.3833,
      "arg_perigee_deg": 340.9863,
      "mean_anomaly_deg": 19.1062,
      "mean_motion_rev_day": 15.17120107
    }
  ]
}